NORAD_CAT_ID,OBJECT_NAME,OBJECT_TYPE,EPOCH,MEAN_MOTION,ECCENTRICITY,INCLINATION,RA_OF_ASC_NODE,ARG_OF_PERICENTER,MEAN_ANOMALY,BSTAR,MEAN_MOTION_DOT,MEAN_MOTION_DDOT,TLE_LINE0,TLE_LINE1,TLE_LINE2,SEMIMAJOR_AXIS,PERIOD,APOGEE,PERIGEE,DECAYED
52340.0,STARLINK-3818,PAYLOAD,2022-06-06 14:00:01,15.73169857,0.000244,53.2141,249.7159,29.7557,65.5503,0.0001935,0.00026589,0.0,0 STARLINK-3818,1 52340U 22045K   22157.58334491  .00026589  00000-0  19350-3 0  9992,2 52340  53.2141 249.7159 0002440  29.7557  65.5503 15.73169857  8479,6727.981,91.535,351.48800000000006,348.204,0.0
52340.0,STARLINK-3818,PAYLOAD,2022-06-06 22:00:00,15.73224688,0.000236,53.2136,248.0653,29.3284,154.8924,-3.2151e-05,-5.137e-05,0.0,0 STARLINK-3818,1 52340U 22045K   22157.91667824 -.00005137  00000-0 -32151-4 0  9991,2 52340  53.2136 248.0653 0002360  29.3284 154.8924 15.73224688  8527,6727.825,91.532,351.278,348.102,0.0
52340.0,STARLINK-3818,PAYLOAD,2022-06-07 14:00:01,15.73216704,0.0002373,53.2142,244.767,23.1224,339.0301,-0.00025107,-0.00035738,0.0,0 STARLINK-3818,1 52340U 22045K   22158.58334491 -.00035738  00000-0 -25107-3 0  9998,2 52340  53.2142 244.7670 0002373  23.1224 339.0301 15.73216704  1301,6727.848000000001,91.532,351.309,348.116,0.0
52340.0,STARLINK-3818,PAYLOAD,2022-06-07 22:00:00,15.73209074,0.0002278,53.2141,243.1161,17.964000000000006,73.153,-9.3937e-06,-1.94e-05,0.0,0 STARLINK-3818,1 52340U 22045K   22158.91667824 -.00001940  00000-0 -93937-5 0  9990,2 52340  53.2141 243.1161 0002278  17.9640  73.1530 15.73209074  1307,6727.869000000002,91.533,351.267,348.202,0.0
52340.0,STARLINK-3818,PAYLOAD,2022-06-08 06:00:02,15.73204694,0.0002155,53.2147,241.4645,22.8029,157.297,0.00042395,0.00059315,0.0,0 STARLINK-3818,1 52340U 22045K   22159.25002315  .00059315  00000-0  42395-3 0  9993,2 52340  53.2147 241.4645 0002155  22.8029 157.2970 15.73204694  8730,6727.882,91.533,351.19699999999995,348.297,0.0
52340.0,STARLINK-3818,PAYLOAD,2022-06-08 14:00:01,15.73456822,0.0002368,53.2159,239.8159,21.2594,247.7133,-0.0071035,-0.00906473,0.0,0 STARLINK-3818,1 52340U 22045K   22159.58334491 -.00906473  00000-0 -71035-2 0  9992,2 52340  53.2159 239.8159 0002368  21.2594 247.7133 15.73456822  8783,6727.163000000001,91.518,350.621,347.435,0.0
52340.0,STARLINK-3818,PAYLOAD,2022-06-08 22:00:01,15.73030437,0.0002278,53.2168,238.1625,13.7065,344.0747,-0.0037517,-0.00493898,0.0,0 STARLINK-3818,1 52340U 22045K   22159.91668981 -.00493898  00000-0 -37517-2 0  9992,2 52340  53.2168 238.1625 0002278  13.7065 344.0747 15.73030437  8830,6728.379,91.543,351.776,348.711,0.0
52340.0,STARLINK-3818,PAYLOAD,2022-06-09 06:00:00,15.72674213,0.000242,53.2174,236.5104,16.5552,69.6903,-0.0056741,-0.00716363,0.0,0 STARLINK-3818,1 52340U 22045K   22160.25001157 -.00716363  00000-0 -56741-2 0  9992,2 52340  53.2174 236.5104 0002420  16.5552  69.6903 15.72674213  8897,6729.395,91.564,352.88800000000015,349.631,0.0
52340.0,STARLINK-3818,PAYLOAD,2022-06-09 14:00:01,15.7216428,0.0002417,53.2174,234.8625,20.8499,153.382,-0.0057998,-0.00716406,0.0,0 STARLINK-3818,1 52340U 22045K   22160.58334491 -.00716406  00000-0 -57998-2 0  9991,2 52340  53.2174 234.8625 0002417  20.8499 153.3820 15.72164280  1306,6730.85,91.593,354.342,351.088,0.0
52340.0,STARLINK-3818,PAYLOAD,2022-06-09 22:00:00,15.71658168,0.0001851,53.2175,233.2121,29.9123,231.6941,-0.0059883,-0.00723154,0.0,0 STARLINK-3818,1 52340U 22045K   22160.91667824 -.00723154  00000-0 -59883-2 0  9990,2 52340  53.2175 233.2121 0001851  29.9123 231.6941 15.71658168  1302,6732.295,91.623,355.406,352.913,0.0
52340.0,STARLINK-3818,PAYLOAD,2022-06-10 08:00:01,15.71017817,0.0002178,53.2176,231.153,21.5175,78.4465,-0.0061048,-0.00718,0.0,0 STARLINK-3818,1 52340U 22045K   22161.33334491 -.00718000  00000-0 -61048-2 0  9998,2 52340  53.2176 231.1530 0002178  21.5175  78.4465 15.71017817  9061,6734.124,91.66,357.456,354.522,0.0
52340.0,STARLINK-3818,PAYLOAD,2022-06-10 14:00:01,15.70635372,0.0002446,53.2175,229.9197,13.0081,61.5095,-0.0062027,-0.00717911,0.0,0 STARLINK-3818,1 52340U 22045K   22161.58334491 -.00717911  00000-0 -62027-2 0  9993,2 52340  53.2175 229.9197 0002446  13.0081  61.5095 15.70635372  1306,6735.217,91.683,358.72900000000016,355.435,0.0
52340.0,STARLINK-3818,PAYLOAD,2022-06-10 22:00:00,15.70126202,0.0001832,53.2174,228.2729,31.5905,128.4645,-0.0063495,-0.00719068,0.0,0 STARLINK-3818,1 52340U 22045K   22161.91667824 -.00719068  00000-0 -63495-2 0  9994,2 52340  53.2174 228.2729 0001832  31.5905 128.4645 15.70126202  1307,6736.6730000000025,91.712,359.772,357.30400000000014,0.0
52340.0,STARLINK-3818,PAYLOAD,2022-06-11 14:00:01,15.69105837,0.0001582,53.2175,224.9884,34.6133,294.6751,-0.0066168,-0.00718099,0.0,0 STARLINK-3818,1 52340U 22045K   22162.58334491 -.00718099  00000-0 -66168-2 0  9992,2 52340  53.2175 224.9884 0001582  34.6133 294.6751 15.69105837  9257,6739.593000000003,91.772,362.524,360.392,0.0
52340.0,STARLINK-3818,PAYLOAD,2022-06-11 22:00:00,15.68595291,0.0001421,53.2176,223.3454,38.1949,14.7931,-0.006749,-0.00717143,0.0,0 STARLINK-3818,1 52340U 22045K   22162.91667824 -.00717143  00000-0 -67490-2 0  9996,2 52340  53.2176 223.3454 0001421  38.1949  14.7931 15.68595291  1305,6741.056,91.802,363.878,361.963,0.0
52340.0,STARLINK-3818,PAYLOAD,2022-06-12 14:00:01,15.67572438,0.0002026,53.2177,220.0682,29.3492,189.1964,-0.0069792,-0.00711623,0.0,0 STARLINK-3818,1 52340U 22045K   22163.58334491 -.00711623  00000-0 -69792-2 0  9995,2 52340  53.2177 220.0682 0002026  29.3492 189.1964 15.67572438  9410,6743.988,91.862,367.219,364.486,0.0
52340.0,STARLINK-3818,PAYLOAD,2022-06-12 22:00:00,15.6706689,0.0001595,53.2175,218.4288,35.8001,264.6049,-0.0072113,-0.00719437,0.0,0 STARLINK-3818,1 52340U 22045K   22163.91667824 -.00719437  00000-0 -72113-2 0  9993,2 52340  53.2175 218.4288 0001595  35.8001 264.6049 15.67066890  1302,6745.438,91.891,368.379,366.227,0.0
52340.0,STARLINK-3818,PAYLOAD,2022-06-13 14:00:01,15.66041249,0.0001877,53.2173,215.1594,27.7428,74.544,-0.0074033999999999,-0.00709377,0.0,0 STARLINK-3818,1 52340U 22045K   22164.58334491 -.00709377  00000-0 -74034-2 0  9994,2 52340  53.2173 215.1594 0001877  27.7428  74.5440 15.66041249  9570,6748.3830000000025,91.952,371.514,368.981,0.0
52340.0,STARLINK-3818,PAYLOAD,2022-06-13 22:00:00,15.65534414,0.0001616,53.2175,213.5235,39.5961,142.7123,-0.0076156999999999,-0.00714427,0.0,0 STARLINK-3818,1 52340U 22045K   22164.91667824 -.00714427  00000-0 -76157-2 0  9990,2 52340  53.2175 213.5235 0001616  39.5961 142.7123 15.65534414  1309,6749.839,91.981,372.795,370.61300000000006,0.0
52340.0,STARLINK-3818,PAYLOAD,2022-06-14 14:00:01,15.64514378,0.0001675,53.2175,210.2616,30.7697,309.7415,-0.0079236999999999,-0.00713594,0.0,0 STARLINK-3818,1 52340U 22045K   22165.58334491 -.00713594  00000-0 -79237-2 0  9991,2 52340  53.2175 210.2616 0001675  30.7697 309.7415 15.64514378  9729,6752.773,92.041,375.769,373.507,0.0
52340.0,STARLINK-3818,PAYLOAD,2022-06-14 22:00:00,15.64004199,0.0001676999999999,53.2176,208.6295,29.3204,29.3755,-0.008091,-0.00713957,0.0,0 STARLINK-3818,1 52340U 22045K   22165.91667824 -.00713957  00000-0 -80910-2 0  9990,2 52340  53.2176 208.6295 0001677  29.3204  29.3755 15.64004199  1307,6754.241,92.071,377.239,374.974,0.0
52340.0,STARLINK-3818,PAYLOAD,2022-06-15 14:00:01,15.62982131,0.0001631,53.2172,205.3749,41.7849,171.4378,-0.0083654,-0.00709281,0.0,0 STARLINK-3818,1 52340U 22045K   22166.58334491 -.00709281  00000-0 -83654-2 0  9998,2 52340  53.2172 205.3749 0001631  41.7849 171.4378 15.62982131  9884,6757.185,92.132,380.152,377.948,0.0
52340.0,STARLINK-3818,PAYLOAD,2022-06-15 22:00:00,15.62474641,0.0001682,53.2173,203.7466,33.3999,256.1681,-0.0085983999999999,-0.00714193,0.0,0 STARLINK-3818,1 52340U 22045K   22166.91667824 -.00714193  00000-0 -85984-2 0  9990,2 52340  53.2173 203.7466 0001682  33.3999 256.1681 15.62474641  1301,6758.648,92.161,381.65,379.377,0.0
52340.0,STARLINK-3818,PAYLOAD,2022-06-16 02:00:01,15.62220435,0.000186,53.2173,202.9335,33.4874,114.0225,-0.0086898,-0.00714623,0.0,0 STARLINK-3818,1 52340U 22045K   22167.08334491 -.00714623  00000-0 -86898-2 0  9993,2 52340  53.2173 202.9335 0001860  33.4874 114.0225 15.62220435  1304,6759.382,92.176,382.504,379.989,0.0
52340.0,STARLINK-3818,PAYLOAD,2022-06-19 14:00:01,15.5686658,0.0001460999999999,53.2172,185.9394,37.8743,331.0383,-0.010668,-0.00714363,0.0,0 STARLINK-3818,1 52340U 22045K   22170.58334491 -.00714363  00000-0 -10668-1 0  9994,2 52340  53.2172 185.9394 0001461  37.8743 331.0383 15.56866580  1304,6774.869000000002,92.493,397.724,395.744,0.0
52340.0,STARLINK-3818,PAYLOAD,2022-06-19 20:00:01,15.56482747,0.000156,53.2175,184.729,36.1034,294.612,-0.01081,-0.00713617,0.0,0 STARLINK-3818,1 52340U 22045K   22170.83334491 -.00713617  00000-0 -10810-1 0  9992,2 52340  53.2175 184.7290 0001560  36.1034 294.6120 15.56482747 10553,6775.983,92.516,398.905,396.791,0.0
52340.0,STARLINK-3818,PAYLOAD,2022-06-19 22:00:00,15.56354856,0.0001657,53.2173,184.3259,32.6949,45.2113,-0.010859,-0.00713464,0.0,0 STARLINK-3818,1 52340U 22045K   22170.91667824 -.00713464  00000-0 -10859-1 0  9993,2 52340  53.2173 184.3259 0001657  32.6949  45.2113 15.56354856  1309,6776.354,92.524,399.342,397.096,0.0
52340.0,STARLINK-3818,PAYLOAD,2022-06-20 14:00:01,15.55337394,0.0001608,53.2171,181.108,44.2422,169.8058,-0.011331,-0.00716501,0.0,0 STARLINK-3818,1 52340U 22045K   22171.58334491 -.00716501  00000-0 -11331-1 0  9999,2 52340  53.2171 181.1080 0001608  44.2422 169.8058 15.55337394  1303,6779.309,92.584,402.264,400.084,0.0
52340.0,STARLINK-3818,PAYLOAD,2022-06-20 22:00:00,15.54824355,0.0001778,53.2173,179.4984,33.4012,247.8018,-0.011465,-0.00711793,0.0,0 STARLINK-3818,1 52340U 22045K   22171.91667824 -.00711793  00000-0 -11465-1 0  9991,2 52340  53.2173 179.4984 0001778  33.4012 247.8018 15.54824355 10716,6780.8,92.615,403.871,401.46,0.0
